{
    "links": {
        "self": "http://www.neowsapp.com/rest/v1/neo/2159560?api_key=iIulBulltgU6a56xZRHN4H3l9WmuAYTsLGpBGhQ2"
    },
    "id": "2159560",
    "neo_reference_id": "2159560",
    "name": "159560 (2001 TO103)",
    "designation": "159560",
    "nasa_jpl_url": "http://ssd.jpl.nasa.gov/sbdb.cgi?sstr=2159560",
    "absolute_magnitude_h": 17.0,
    "estimated_diameter": {
        "kilometers": {
            "estimated_diameter_min": 1.0581688593,
            "estimated_diameter_max": 2.3661375011
        },
        "meters": {
            "estimated_diameter_min": 1058.1688593312,
            "estimated_diameter_max": 2366.137501138
        },
        "miles": {
            "estimated_diameter_min": 0.6575154423,
            "estimated_diameter_max": 1.4702492252
        },
        "feet": {
            "estimated_diameter_min": 3471.6827204482,
            "estimated_diameter_max": 7762.9185592335
        }
    },
    "is_potentially_hazardous_asteroid": false,
    "close_approach_data": [
        {
            "close_approach_date": "1925-06-07",
            "close_approach_date_full": "1925-Jun-07 05:58",
            "epoch_date_close_approach": -1406484120000,
            "relative_velocity": {
                "kilometers_per_second": "13.1311725943",
                "kilometers_per_hour": "47272.2213394066",
                "miles_per_hour": "29373.119976144"
            },
            "miss_distance": {
                "astronomical": "0.4696572136",
                "lunar": "182.6966560904",
                "kilometers": "70259718.784695032",
                "miles": "43657364.8339021616"
            },
            "orbiting_body": "Earth"
        },
        {
            "close_approach_date": "2004-06-04",
            "close_approach_date_full": "2004-Jun-04 12:46",
            "epoch_date_close_approach": 1086353160000,
            "relative_velocity": {
                "kilometers_per_second": "12.544885429",
                "kilometers_per_hour": "45161.5875443129",
                "miles_per_hour": "28061.654216076"
            },
            "miss_distance": {
                "astronomical": "0.4801396316",
                "lunar": "186.7743166924",
                "kilometers": "71827866.189944692",
                "miles": "44631766.4479210696"
            },
            "orbiting_body": "Earth"
        },
        {
            "close_approach_date": "2060-06-08",
            "close_approach_date_full": "2060-Jun-08 00:01",
            "epoch_date_close_approach": 2853878460000,
            "relative_velocity": {
                "kilometers_per_second": "13.1882701187",
                "kilometers_per_hour": "47477.7724273582",
                "miles_per_hour": "29500.8414285437"
            },
            "miss_distance": {
                "astronomical": "0.4781090393",
                "lunar": "185.9844162877",
                "kilometers": "71524093.907026291",
                "miles": "44443011.1040171758"
            },
            "orbiting_body": "Earth"
        },
        {
            "close_approach_date": "2139-06-06",
            "close_approach_date_full": "2139-Jun-06 03:48",
            "epoch_date_close_approach": 5346618480000,
            "relative_velocity": {
                "kilometers_per_second": "12.4061978353",
                "kilometers_per_hour": "44662.31220722",
                "miles_per_hour": "27751.4239378696"
            },
            "miss_distance": {
                "astronomical": "0.4860854374",
                "lunar": "189.0872351486",
                "kilometers": "72717346.073058338",
                "miles": "45184463.6183795444"
            },
            "orbiting_body": "Earth"
        },
        {
            "close_approach_date": "2195-06-09",
            "close_approach_date_full": "2195-Jun-09 15:11",
            "epoch_date_close_approach": 7114144260000,
            "relative_velocity": {
                "kilometers_per_second": "12.7901570821",
                "kilometers_per_hour": "46044.5654955665",
                "miles_per_hour": "28610.3023769535"
            },
            "miss_distance": {
                "astronomical": "0.4835784363",
                "lunar": "188.1120117207",
                "kilometers": "72342304.048410681",
                "miles": "44951423.3104861578"
            },
            "orbiting_body": "Earth"
        }
    ],
    "orbital_data": {
        "orbit_id": "106",
        "orbit_determination_date": "2020-05-19 07:13:34",
        "first_observation_date": "2001-09-15",
        "last_observation_date": "2020-05-18",
        "data_arc_in_days": 6820,
        "observations_used": 468,
        "orbit_uncertainty": "0",
        "minimum_orbit_intersection": ".47206",
        "jupiter_tisserand_invariant": "3.409",
        "epoch_osculation": "2459000.5",
        "eccentricity": ".4348639044975876",
        "semi_major_axis": "2.21283297093467",
        "inclination": "25.72853558011689",
        "ascending_node_longitude": "42.25355207431839",
        "orbital_period": "1202.323615725942",
        "perihelion_distance": "1.250551785193023",
        "perihelion_argument": "261.6112980491429",
        "aphelion_distance": "3.175114156676317",
        "perihelion_time": "2459238.518176581309",
        "mean_anomaly": "288.7325455072801",
        "mean_motion": ".2994202187259196",
        "equinox": "J2000",
        "orbit_class": {
            "orbit_class_type": "AMO",
            "orbit_class_description": "Near-Earth asteroid orbits similar to that of 1221 Amor",
            "orbit_class_range": "1.017 AU < q (perihelion) < 1.3 AU"
        }
    },
    "is_sentry_object": false
}